{"fetched_at":"2026-03-29T16:36:15Z","count":15609,"tles":[{"name":"STARLINK-2406","line1":"1 47821U 21018AL  26087.41494544 -.00003385  00000+0 -10222-3 0  9992","line2":"2 47821  53.1611 155.7833 0001461 107.7870 252.3291 15.30199040279593","category":"Starlink"}]}